NORAD_CAT_ID,OBJECT_NAME,OBJECT_TYPE,EPOCH,MEAN_MOTION,ECCENTRICITY,INCLINATION,RA_OF_ASC_NODE,ARG_OF_PERICENTER,MEAN_ANOMALY,BSTAR,MEAN_MOTION_DOT,MEAN_MOTION_DDOT,TLE_LINE0,TLE_LINE1,TLE_LINE2,SEMIMAJOR_AXIS,PERIOD,APOGEE,PERIGEE,DECAYED
56774.0,STARLINK-6190,PAYLOAD,2023-12-20 22:02:45,14.98329507,0.000264,69.9994,246.0803,260.6767,99.4093,0.00012946,1.452e-05,0.0,0 STARLINK-6190,1 56774U 23078H   23354.91857712  .00001452  00000-0  12946-3 0  9993,2 56774  69.9994 246.0803 0002640 260.6767  99.4093 14.98329507 30898,6950.194,96.107,573.894,570.225,0.0
56774.0,STARLINK-6190,PAYLOAD,2023-12-21 02:51:08,14.9833279,0.0002577,69.9995,245.5756,258.0715,102.0155,0.00016139,1.833e-05,0.0,0 STARLINK-6190,1 56774U 23078H   23355.11885388  .00001833  00000-0  16139-3 0  9997,2 56774  69.9995 245.5756 0002577 258.0715 102.0155 14.98332790 31184,6950.184,96.107,573.84,570.258,0.0
56774.0,STARLINK-6190,PAYLOAD,2023-12-21 22:04:46,14.98327876,0.0002454,69.9999,243.5568,247.6359,112.454,-1.4742e-05,-2.69e-06,0.0,0 STARLINK-6190,1 56774U 23078H   23355.91998142 -.00000269  00000-0 -14742-4 0  9991,2 56774  69.9999 243.5568 0002454 247.6359 112.4540 14.98327876 31046,6950.199,96.107,573.77,570.359,0.0
56774.0,STARLINK-6190,PAYLOAD,2023-12-22 02:53:10,14.9832514,0.0002465,69.9997,243.0511,253.1468,106.9421,-4.762e-05,-6.61e-06,0.0,0 STARLINK-6190,1 56774U 23078H   23356.12026460 -.00000661  00000-0 -47620-4 0  9997,2 56774  69.9997 243.0511 0002465 253.1468 106.9421 14.98325140 31332,6950.208,96.107,573.786,570.36,0.0
56774.0,STARLINK-6190,PAYLOAD,2023-12-22 20:30:38,14.9833748,0.0002591,69.9991,241.1987,256.2885,103.7986,-1.1497e-05,-2.3e-06,0.0,0 STARLINK-6190,1 56774U 23078H   23356.85461472 -.00000230  00000-0 -11497-4 0  9998,2 56774  69.9991 241.1987 0002591 256.2885 103.7986 14.98337480 31442,6950.17,96.107,573.836,570.234,0.0
56774.0,STARLINK-6190,PAYLOAD,2023-12-22 22:06:46,14.98337399,0.0002586,69.9991,241.0304,255.9283,104.1588,-1.0942e-05,-2.24e-06,0.0,0 STARLINK-6190,1 56774U 23078H   23356.92137441 -.00000224  00000-0 -10942-4 0  9999,2 56774  69.9991 241.0304 0002586 255.9283 104.1588 14.98337399 31190,6950.17,96.107,573.832,570.238,0.0
56774.0,STARLINK-6190,PAYLOAD,2023-12-23 02:55:10,14.98344984,0.0002642,69.9988,240.5245,261.9457,98.1402,-7.3514e-05,-9.7e-06,0.0,0 STARLINK-6190,1 56774U 23078H   23357.12164998 -.00000970  00000-0 -73514-4 0  9991,2 56774  69.9988 240.5245 0002642 261.9457  98.1402 14.98344984 31226,6950.147,96.106,573.848,570.175,0.0
56774.0,STARLINK-6190,PAYLOAD,2023-12-23 18:56:31,14.98325074,0.0002474,69.9989,238.8407,257.2215,102.8667,3.9336e-05,3.76e-06,0.0,0 STARLINK-6190,1 56774U 23078H   23357.78925895  .00000376  00000-0  39336-4 0  9996,2 56774  69.9989 238.8407 0002474 257.2215 102.8667 14.98325074 31584,6950.208,96.107,573.793,570.354,0.0
56774.0,STARLINK-6190,PAYLOAD,2023-12-23 22:08:48,14.98325033,0.0002479,69.9989,238.504,257.0798,103.0084,3.6459e-05,3.42e-06,0.0,0 STARLINK-6190,1 56774U 23078H   23357.92277940  .00000342  00000-0  36459-4 0  9999,2 56774  69.9989 238.5040 0002479 257.0798 103.0084 14.98325033 31348,6950.208,96.107,573.796,570.35,0.0
56774.0,STARLINK-6190,PAYLOAD,2023-12-24 01:21:04,14.98324692,0.0002485,69.9989,238.1673,259.4703,100.6176,2.8977e-05,2.53e-06,0.0,0 STARLINK-6190,1 56774U 23078H   23358.05630029  .00000253  00000-0  28977-4 0  9992,2 56774  69.9989 238.1673 0002485 259.4703 100.6176 14.98324692 31362,6950.209,96.107,573.801,570.347,0.0
56774.0,STARLINK-6190,PAYLOAD,2023-12-24 20:34:40,14.98331537,0.000248,69.999,236.1477,254.6701,105.4184,-3.0693e-05,-4.59e-06,0.0,0 STARLINK-6190,1 56774U 23078H   23358.85741778 -.00000459  00000-0 -30693-4 0  9992,2 56774  69.9990 236.1477 0002480 254.6701 105.4184 14.98331537 31744,6950.188,96.107,573.777,570.329,0.0
56774.0,STARLINK-6190,PAYLOAD,2023-12-24 22:10:49,14.98330833,0.0002493,69.9989,235.9793,254.2256,105.8628,-3.8116e-05,-5.48e-06,0.0,0 STARLINK-6190,1 56774U 23078H   23358.92417842 -.00000548  00000-0 -38116-4 0  9999,2 56774  69.9989 235.9793 0002493 254.2256 105.8628 14.98330833 31492,6950.19,96.107,573.788,570.323,0.0
56774.0,STARLINK-6190,PAYLOAD,2023-12-25 01:23:05,14.98331923,0.0002641,69.9985,235.642,263.7052,96.3806,-1.2849e-05,-2.46e-06,0.0,0 STARLINK-6190,1 56774U 23078H   23359.05769724 -.00000246  00000-0 -12849-4 0  9993,2 56774  69.9985 235.6420 0002641 263.7052  96.3806 14.98331923 31512,6950.187,96.107,573.887,570.216,0.0
56774.0,STARLINK-6190,PAYLOAD,2023-12-25 22:12:50,14.98327275,0.0002689,69.9983,233.4535,262.9628,97.1225,1.4529e-05,8e-07,0.0,0 STARLINK-6190,1 56774U 23078H   23359.92557937  .00000080  00000-0  14529-4 0  9991,2 56774  69.9983 233.4535 0002689 262.9628  97.1225 14.98327275 31648,6950.201,96.107,573.935,570.197,0.0
56774.0,STARLINK-6190,PAYLOAD,2023-12-26 01:25:05,14.98330418,0.0002687,69.9984,233.117,264.512,95.5733,6.013e-05,6.25e-06,0.0,0 STARLINK-6190,1 56774U 23078H   23360.05909617  .00000625  00000-0  60130-4 0  9997,2 56774  69.9984 233.1170 0002687 264.5120  95.5733 14.98330418 31924,6950.192,96.107,573.924,570.189,0.0
56774.0,STARLINK-6190,PAYLOAD,2023-12-26 14:14:10,14.98329575,0.0002597,69.9988,231.7711,255.188,104.8992,3.0635e-05,2.73e-06,0.0,0 STARLINK-6190,1 56774U 23078H   23360.59317725  .00000273  00000-0  30635-4 0  9995,2 56774  69.9988 231.7711 0002597 255.1880 104.8992 14.98329575 31745,6950.194,96.107,573.864,570.254,0.0
56774.0,STARLINK-6190,PAYLOAD,2023-12-26 22:14:50,14.98329791,0.0002642,69.9984,230.9288,263.3444,96.7414,1.0051e-05,2.7e-07,0.0,0 STARLINK-6190,1 56774U 23078H   23360.92697808  .00000027  00000-0  10051-4 0  9992,2 56774  69.9984 230.9288 0002642 263.3444  96.7414 14.98329791 31792,6950.194,96.107,573.895,570.222,0.0
56774.0,STARLINK-6190,PAYLOAD,2023-12-27 01:27:06,14.98331135,0.0002645,69.9985,230.5922,263.5441,96.5417,3.2872e-05,2.99e-06,0.0,0 STARLINK-6190,1 56774U 23078H   23361.06049652  .00000299  00000-0  32872-4 0  9992,2 56774  69.9985 230.5922 0002645 263.5441  96.5417 14.98331135 32074,6950.189,96.107,573.893,570.216,0.0
56774.0,STARLINK-6190,PAYLOAD,2023-12-27 22:16:51,14.98331701,0.0002643,69.9988,228.4045,256.3472,103.7393,-9.0121e-07,-1.04e-06,0.0,0 STARLINK-6190,1 56774U 23078H   23361.92837609 -.00000104  00000-0 -90121-6 0  9994,2 56774  69.9988 228.4045 0002643 256.3472 103.7393 14.98331701 31949,6950.188,96.107,573.89,570.216,0.0
56774.0,STARLINK-6190,PAYLOAD,2023-12-28 01:29:07,14.98341015,0.0002968,69.9979,228.0673,273.4066,86.6753,1.7182e-05,1.12e-06,0.0,0 STARLINK-6190,1 56774U 23078H   23362.06189034  .00000112  00000-0  17182-4 0  9993,2 56774  69.9979 228.0673 0002968 273.4066  86.6753 14.98341015 32221,6950.159,96.106,574.087,569.961,0.0
56774.0,STARLINK-6190,PAYLOAD,2023-12-28 14:18:12,14.98359713,0.0003279,69.9981,226.7221,282.1632,77.916,-0.00039451,-4.801e-05,0.0,0 STARLINK-6190,1 56774U 23078H   23362.59597242 -.00004801  00000-0 -39451-3 0  9998,2 56774  69.9981 226.7221 0003279 282.1632  77.9160 14.98359713 32049,6950.101,96.105,574.245,569.687,0.0
56774.0,STARLINK-6190,PAYLOAD,2023-12-28 19:06:36,14.98329558,0.0002719,69.9991,226.2163,271.3981,88.6866,2.3765e-05,1.91e-06,0.0,0 STARLINK-6190,1 56774U 23078H   23362.79625675  .00000191  00000-0  23765-4 0  9990,2 56774  69.9991 226.2163 0002719 271.3981  88.6866 14.98329558 32333,6950.194,96.107,573.949,570.169,0.0
56774.0,STARLINK-6190,PAYLOAD,2023-12-28 22:18:52,14.98331579,0.0002723,69.9986,225.8788,266.344,93.7408,1.8776e-05,1.31e-06,0.0,0 STARLINK-6190,1 56774U 23078H   23362.92977451  .00000131  00000-0  18776-4 0  9997,2 56774  69.9986 225.8788 0002723 266.3440  93.7408 14.98331579 32092,6950.188,96.107,573.946,570.16,0.0
56774.0,STARLINK-6190,PAYLOAD,2023-12-29 01:31:08,14.98332881,0.0002763,69.9984,225.5418,267.2449,92.8393,3.3004e-05,3.01e-06,0.0,0 STARLINK-6190,1 56774U 23078H   23363.06329301  .00000301  00000-0  33004-4 0  9998,2 56774  69.9984 225.5418 0002763 267.2449  92.8393 14.98332881 32113,6950.184,96.107,573.969,570.129,0.0
56774.0,STARLINK-6190,PAYLOAD,2023-12-29 19:08:37,14.98328824,0.0002668,69.9994,223.6916,262.7551,97.3305,2.8279e-05,2.44e-06,0.0,0 STARLINK-6190,1 56774U 23078H   23363.79765519  .00000244  00000-0  28279-4 0  9997,2 56774  69.9994 223.6916 0002668 262.7551  97.3305 14.98328824 32489,6950.197,96.107,573.916,570.207,0.0
56774.0,STARLINK-6190,PAYLOAD,2023-12-29 22:20:53,14.98330416,0.0002595,69.9993,223.3545,261.7626,98.3238,2.5008e-05,2.05e-06,0.0,0 STARLINK-6190,1 56774U 23078H   23363.93117420  .00000205  00000-0  25008-4 0  9999,2 56774  69.9993 223.3545 0002595 261.7626  98.3238 14.98330416 32244,6950.192,96.107,573.86,570.253,0.0
56774.0,STARLINK-6190,PAYLOAD,2023-12-30 14:22:14,14.98330594,0.0002619,69.999,221.6706,264.127,95.9591,5.2564e-06,-3e-07,0.0,0 STARLINK-6190,1 56774U 23078H   23364.59877393 -.00000030  00000-0  52564-5 0  9999,2 56774  69.9990 221.6706 0002619 264.1270  95.9591 14.98330594 32343,6950.191,96.107,573.876,570.236,0.0
56774.0,STARLINK-6190,PAYLOAD,2023-12-30 19:10:38,14.98330489,0.0002568,69.9992,221.1655,260.7418,99.3451,4.1629e-06,-4.3e-07,0.0,0 STARLINK-6190,1 56774U 23078H   23364.79905366 -.00000043  00000-0  41629-5 0  9997,2 56774  69.9992 221.1655 0002568 260.7418  99.3451 14.98330489 32630,6950.191,96.107,573.841,570.272,0.0
56774.0,STARLINK-6190,PAYLOAD,2023-12-30 22:22:54,14.98330537,0.0002562,69.9991,220.8287,260.3284,99.7586,-8.7551e-07,-1.03e-06,0.0,0 STARLINK-6190,1 56774U 23078H   23364.93257358 -.00000103  00000-0 -87551-6 0  9997,2 56774  69.9991 220.8287 0002562 260.3284  99.7586 14.98330537 32397,6950.191,96.107,573.837,570.276,0.0
56774.0,STARLINK-6190,PAYLOAD,2023-12-31 19:12:39,14.98327212,0.0002732,69.9988,218.6397,265.1522,94.9325,-2.5072e-05,-3.92e-06,0.0,0 STARLINK-6190,1 56774U 23078H   23365.80045695 -.00000392  00000-0 -25072-4 0  9991,2 56774  69.9988 218.6397 0002732 265.1522  94.9325 14.98327212 32784,6950.202,96.107,573.965,570.168,0.0
